NORAD_CAT_ID,OBJECT_NAME,OBJECT_TYPE,EPOCH,MEAN_MOTION,ECCENTRICITY,INCLINATION,RA_OF_ASC_NODE,ARG_OF_PERICENTER,MEAN_ANOMALY,BSTAR,MEAN_MOTION_DOT,MEAN_MOTION_DDOT,TLE_LINE0,TLE_LINE1,TLE_LINE2,SEMIMAJOR_AXIS,PERIOD,APOGEE,PERIGEE,DECAYED
53889.0,STARLINK-5031,PAYLOAD,2024-02-17 09:40:01,15.08848083,0.00016,53.2161,96.9303,96.8263,263.2911,0.0003469,5.238e-05,0.0,0 STARLINK-5031,1 53889U 22119D   24048.40279338  .00005238  00000-0  34690-3 0  9995,2 53889  53.2161  96.9303 0001600  96.8263 263.2911 15.08848083 77849,6917.856,95.437,540.828,538.614,0.0
53889.0,STARLINK-5031,PAYLOAD,2024-02-18 09:30:48,15.08844069,0.0001494,53.2153,92.4691,85.8577,274.2586,0.0002145,3.128e-05,0.0,0 STARLINK-5031,1 53889U 22119D   24049.39639603  .00003128  00000-0  21450-3 0  9995,2 53889  53.2153  92.4691 0001494  85.8577 274.2586 15.08844069 77994,6917.868,95.437,540.766,538.699,0.0
53889.0,STARLINK-5031,PAYLOAD,2024-02-19 03:00:03,15.0883344,0.0001642,53.2163,89.2021,87.088,273.03,7.0864e-05,8.4e-06,0.0,0 STARLINK-5031,1 53889U 22119D   24050.12504305  .00000840  00000-0  70864-4 0  9990,2 53889  53.2163  89.2021 0001642  87.0880 273.0300 15.08833440 78108,6917.9,95.438,540.901,538.63,0.0
53889.0,STARLINK-5031,PAYLOAD,2024-02-19 10:56:59,15.08836568,0.000166,53.2169,87.7142,94.1132,266.005,7.8871e-05,9.67e-06,0.0,0 STARLINK-5031,1 53889U 22119D   24050.45624284  .00000967  00000-0  78871-4 0  9991,2 53889  53.2169  87.7142 0001660  94.1132 266.0050 15.08836568 78579,6917.891,95.438,540.904,538.608,0.0
53889.0,STARLINK-5031,PAYLOAD,2024-02-19 18:53:55,15.08837934,0.0001661,53.2168,86.2264,90.27,269.8483,3.7295e-05,3.06e-06,0.0,0 STARLINK-5031,1 53889U 22119D   24050.78744279  .00000306  00000-0  37295-4 0  9996,2 53889  53.2168  86.2264 0001661  90.2700 269.8483 15.08837934 78621,6917.887,95.438,540.901,538.603,0.0
53889.0,STARLINK-5031,PAYLOAD,2024-02-20 09:12:23,15.08844833,0.0001629,53.2163,83.5492,86.769,273.3488,0.00020638,2.998e-05,0.0,0 STARLINK-5031,1 53889U 22119D   24051.38359991  .00002998  00000-0  20638-3 0  9997,2 53889  53.2163  83.5492 0001629  86.7690 273.3488 15.08844833 78295,6917.866,95.437,540.858,538.604,0.0
53889.0,STARLINK-5031,PAYLOAD,2024-02-20 12:23:09,15.08847468,0.0001648,53.216,82.9537,87.3305,272.7876,0.00026099,3.869e-05,0.0,0 STARLINK-5031,1 53889U 22119D   24051.51607836  .00003869  00000-0  26099-3 0  9991,2 53889  53.2160  82.9537 0001648  87.3305 272.7876 15.08847468 78736,6917.858,95.437,540.863,538.582,0.0
53889.0,STARLINK-5031,PAYLOAD,2024-02-20 18:44:41,15.08847196,0.0001561,53.2161,81.7662,88.5247,271.5924,0.00015848,2.236e-05,0.0,0 STARLINK-5031,1 53889U 22119D   24051.78103732  .00002236  00000-0  15848-3 0  9993,2 53889  53.2161  81.7662 0001561  88.5247 271.5924 15.08847196 78778,6917.858,95.437,540.803,538.644,0.0
53889.0,STARLINK-5031,PAYLOAD,2024-02-21 09:03:10,15.0883991,0.0001874,53.2184,79.0915,98.5711,261.5494,0.00012471,1.697e-05,0.0,0 STARLINK-5031,1 53889U 22119D   24052.37720366  .00001697  00000-0  12471-3 0  9996,2 53889  53.2184  79.0915 0001874  98.5711 261.5494 15.08839910 78448,6917.881,95.438,541.042,538.449,0.0
53889.0,STARLINK-5031,PAYLOAD,2024-02-21 18:35:29,15.0883792,0.0001628,53.217,77.306,90.5777,269.5402,8.9898e-05,1.143e-05,0.0,0 STARLINK-5031,1 53889U 22119D   24052.77464590  .00001143  00000-0  89898-4 0  9998,2 53889  53.2170  77.3060 0001628  90.5777 269.5402 15.08837920 78925,6917.887,95.438,540.878,538.626,0.0
53889.0,STARLINK-5031,PAYLOAD,2024-02-22 10:29:20,15.08842557,0.000166,53.217,74.3323,91.9273,268.1909,2.607e-05,1.27e-06,0.0,0 STARLINK-5031,1 53889U 22119D   24053.43704453  .00000127  00000-0  26070-4 0  9991,2 53889  53.2170  74.3323 0001660  91.9273 268.1909 15.08842557 78600,6917.873,95.437,540.886,538.589,0.0
53889.0,STARLINK-5031,PAYLOAD,2024-02-22 18:26:16,15.08843119,0.0001632,53.2165,72.8448,88.289,271.8289,3.2508e-05,2.29e-06,0.0,0 STARLINK-5031,1 53889U 22119D   24053.76824357  .00000229  00000-0  32508-4 0  9999,2 53889  53.2165  72.8448 0001632  88.2890 271.8289 15.08843119 79077,6917.871,95.437,540.865,538.607,0.0
53889.0,STARLINK-5031,PAYLOAD,2024-02-23 08:44:44,15.08845614,0.0001631,53.2164,70.1679,84.6088,275.5091,0.00010289,1.35e-05,0.0,0 STARLINK-5031,1 53889U 22119D   24054.36440053  .00001350  00000-0  10289-3 0  9990,2 53889  53.2164  70.1679 0001631  84.6088 275.5091 15.08845614 79165,6917.863,95.437,540.857,538.6,0.0
53889.0,STARLINK-5031,PAYLOAD,2024-02-23 18:17:03,15.08844591,0.0001652,53.2168,68.3839,84.96,275.158,0.00011355,1.52e-05,0.0,0 STARLINK-5031,1 53889U 22119D   24054.76184097  .00001520  00000-0  11355-3 0  9991,2 53889  53.2168  68.3839 0001652  84.9600 275.1580 15.08844591 78804,6917.866,95.437,540.874,538.589,0.0
53889.0,STARLINK-5031,PAYLOAD,2024-02-24 07:00:08,15.08843937,0.0001779,53.2172,66.0039,91.8376,268.282,0.00012534,1.707e-05,0.0,0 STARLINK-5031,1 53889U 22119D   24055.29176190  .00001707  00000-0  12534-3 0  9992,2 53889  53.2172  66.0039 0001779  91.8376 268.2820 15.08843937 79302,6917.868,95.437,540.964,538.503,0.0
53889.0,STARLINK-5031,PAYLOAD,2024-02-24 18:07:50,15.08841709,0.0001567,53.2159,63.9227,90.9298,269.1874,6.5584e-05,7.56e-06,0.0,0 STARLINK-5031,1 53889U 22119D   24055.75544417  .00000756  00000-0  65584-4 0  9991,2 53889  53.2159  63.9227 0001567  90.9298 269.1874 15.08841709 78954,6917.875,95.437,540.824,538.656,0.0
53889.0,STARLINK-5031,PAYLOAD,2024-02-25 06:50:55,15.08844,0.0001478,53.2166,61.543,93.8799,266.2362,9.3608e-05,1.202e-05,0.0,0 STARLINK-5031,1 53889U 22119D   24056.28536088  .00001202  00000-0  93608-4 0  9990,2 53889  53.2166  61.5430 0001478  93.8799 266.2362 15.08844000 79454,6917.868,95.437,540.756,538.711,0.0
53889.0,STARLINK-5031,PAYLOAD,2024-02-26 03:30:55,15.08842195,0.0001608,53.2165,57.6766,99.1513,260.9661,8.7064e-05,1.098e-05,0.0,0 STARLINK-5031,1 53889U 22119D   24057.14648145  .00001098  00000-0  87064-4 0  9996,2 53889  53.2165  57.6766 0001608  99.1513 260.9661 15.08842195 79163,6917.874,95.437,540.851,538.626,0.0
53889.0,STARLINK-5031,PAYLOAD,2024-02-26 06:41:42,15.08845749,0.0001618,53.2167,57.0816,99.4902,260.6273,9.0742e-05,1.157e-05,0.0,0 STARLINK-5031,1 53889U 22119D   24057.27895880  .00001157  00000-0  90742-4 0  9993,2 53889  53.2167  57.0816 0001618  99.4902 260.6273 15.08845749 79604,6917.863,95.437,540.847,538.609,0.0
53889.0,STARLINK-5031,PAYLOAD,2024-02-27 03:21:43,15.08838057,0.0001754,53.2181,53.215,102.5243,257.5946,2.4068e-05,9.5e-07,0.0,0 STARLINK-5031,1 53889U 22119D   24058.14008617  .00000095  00000-0  24068-4 0  9992,2 53889  53.2181  53.2150 0001754 102.5243 257.5946 15.08838057 79318,6917.886,95.438,540.965,538.538,0.0
53889.0,STARLINK-5031,PAYLOAD,2024-02-27 09:43:15,15.08841663,0.0001739,53.2182,52.0283,99.0822,261.0367,4.8782e-05,4.88e-06,0.0,0 STARLINK-5031,1 53889U 22119D   24058.40504310  .00000488  00000-0  48782-4 0  9997,2 53889  53.2182  52.0283 0001739  99.0822 261.0367 15.08841663 79773,6917.875,95.437,540.943,538.537,0.0
53889.0,STARLINK-5031,PAYLOAD,2024-02-27 16:04:48,15.08836965,0.0001563,53.2174,50.8373,93.0489,267.0682,1.2889e-05,-8.3e-07,0.0,0 STARLINK-5031,1 53889U 22119D   24058.67000730 -.00000083  00000-0  12889-4 0  9994,2 53889  53.2174  50.8373 0001563  93.0489 267.0682 15.08836965 79818,6917.89,95.438,540.836,538.673,0.0
53889.0,STARLINK-5031,PAYLOAD,2024-02-28 06:23:16,15.08839734,0.0001913,53.2191,48.1656,115.4098,244.7092,-1.4186e-05,-5.14e-06,0.0,0 STARLINK-5031,1 53889U 22119D   24059.26616825 -.00000514  00000-0 -14186-4 0  9990,2 53889  53.2191  48.1656 0001913 115.4098 244.7092 15.08839734 79482,6917.881,95.438,541.07,538.423,0.0
53889.0,STARLINK-5031,PAYLOAD,2024-02-28 15:55:35,15.0883449,0.0001618,53.2183,46.3799,98.7346,261.3829,5.8734e-05,6.47e-06,0.0,0 STARLINK-5031,1 53889U 22119D   24059.66361073  .00000647  00000-0  58734-4 0  9998,2 53889  53.2183  46.3799 0001618  98.7346 261.3829 15.08834490 79962,6917.897,95.438,540.882,538.643,0.0
53889.0,STARLINK-5031,PAYLOAD,2024-02-29 06:14:04,15.08837283,0.0001611,53.2185,43.7037,99.3508,260.7667,6.1474e-05,6.9e-06,0.0,0 STARLINK-5031,1 53889U 22119D   24060.25977184  .00000690  00000-0  61474-4 0  9994,2 53889  53.2185  43.7037 0001611  99.3508 260.7667 15.08837283 80058,6917.889,95.438,540.868,538.639,0.0
53889.0,STARLINK-5031,PAYLOAD,2024-02-29 15:46:22,15.08841515,0.0001622,53.2189,41.919,93.4676,266.6502,3.7792e-05,3.14e-06,0.0,0 STARLINK-5031,1 53889U 22119D   24060.65721047  .00000314  00000-0  37792-4 0  9992,2 53889  53.2189  41.9190 0001622  93.4676 266.6502 15.08841515 79699,6917.876,95.437,540.863,538.619,0.0
53889.0,STARLINK-5031,PAYLOAD,2024-03-01 02:54:03,15.08891527,0.0001896,53.2191,39.8374,78.4244,281.6961,-0.00071051,-0.00011594,0.0,0 STARLINK-5031,1 53889U 22119D   24061.12087497 -.00011594  00000-0 -71051-3 0  9998,2 53889  53.2191  39.8374 0001896  78.4244 281.6961 15.08891527 79761,6917.723,95.434,540.899,538.276,0.0
53889.0,STARLINK-5031,PAYLOAD,2024-03-01 07:40:13,15.0885306,0.0001556,53.2185,38.945,83.3794,276.7375,0.00018029,2.583e-05,0.0,0 STARLINK-5031,1 53889U 22119D   24061.31960112  .00002583  00000-0  18029-3 0  9995,2 53889  53.2185  38.9450 0001556  83.3794 276.7375 15.08853060 79794,6917.84,95.437,540.782,538.629,0.0
53889.0,STARLINK-5031,PAYLOAD,2024-03-02 02:44:51,15.08839748,0.0001522,53.2181,35.3743,83.7451,276.3715,0.00011291,1.509e-05,0.0,0 STARLINK-5031,1 53889U 22119D   24062.11448945  .00001509  00000-0  11291-3 0  9990,2 53889  53.2181  35.3743 0001522  83.7451 276.3715 15.08839748 79918,6917.881,95.438,540.799,538.693,0.0
53889.0,STARLINK-5031,PAYLOAD,2024-03-02 05:55:37,15.08847296,0.0001554,53.219,34.779,85.0772,275.0398,9.2067e-05,1.178e-05,0.0,0 STARLINK-5031,1 53889U 22119D   24062.24696510  .00001178  00000-0  92067-4 0  9990,2 53889  53.2190  34.7790 0001554  85.0772 275.0398 15.08847296 80359,6917.858,95.437,540.798,538.648,0.0
